NORAD_CAT_ID,OBJECT_NAME,OBJECT_TYPE,EPOCH,MEAN_MOTION,ECCENTRICITY,INCLINATION,RA_OF_ASC_NODE,ARG_OF_PERICENTER,MEAN_ANOMALY,BSTAR,MEAN_MOTION_DOT,MEAN_MOTION_DDOT,TLE_LINE0,TLE_LINE1,TLE_LINE2,SEMIMAJOR_AXIS,PERIOD,APOGEE,PERIGEE,DECAYED
56497.0,STARLINK-5527,PAYLOAD,2023-11-13 22:00:00,15.28646545,0.0003418,70.0004,81.0754,280.9145,78.9325,-0.0019972,-0.00055509,0.0,0 STARLINK-5527,1 56497U 23064BB  23317.91667824 -.00055509  00000-0 -19972-2 0  9991,2 56497  70.0004  81.0754 0003418 280.9145  78.9325 15.28646545 29713,6857.994,94.201,482.203,477.515,0.0
56497.0,STARLINK-5527,PAYLOAD,2023-11-14 14:00:01,15.2860471,0.00034,70.0007,79.3146,277.5378,149.9112,-0.00044964,-0.0001265,0.0,0 STARLINK-5527,1 56497U 23064BB  23318.58334491 -.00012650  00000-0 -44964-3 0  9996,2 56497  70.0007  79.3146 0003400 277.5378 149.9112 15.28604710  5997,6858.119,94.204,482.316,477.653,0.0
56497.0,STARLINK-5527,PAYLOAD,2023-11-14 22:00:00,15.28627923,0.0003347,70.0005,78.434,280.0742,181.1508,-0.0015525,-0.00043223,0.0,0 STARLINK-5527,1 56497U 23064BB  23318.91667824 -.00043223  00000-0 -15525-2 0  9992,2 56497  70.0005  78.4340 0003347 280.0742 181.1508 15.28627923  6040,6858.05,94.202,482.21,477.62,0.0
56497.0,STARLINK-5527,PAYLOAD,2023-11-15 11:41:37,15.28607753,0.0002808,69.9989,76.9269,270.1944,89.8909,3.7078e-05,9.08e-06,0.0,0 STARLINK-5527,1 56497U 23064BB  23319.48723566  .00000908  00000-0  37078-4 0  9991,2 56497  69.9989  76.9269 0002808 270.1944  89.8909 15.28607753 29959,6858.11,94.203,481.901,478.05,0.0
56497.0,STARLINK-5527,PAYLOAD,2023-11-15 17:58:32,15.28605978,0.0003809,69.9973,76.2327,282.3789,77.6959,4.4784e-06,-2e-08,0.0,0 STARLINK-5527,1 56497U 23064BB  23319.74899223 -.00000002  00000-0  44784-5 0  9993,2 56497  69.9973  76.2327 0003809 282.3789  77.6959 15.28605978 29995,6858.116,94.203,482.593,477.368,0.0
56497.0,STARLINK-5527,PAYLOAD,2023-11-16 09:40:51,15.28607558,0.0003317,69.9986,74.5057,281.7719,78.3083,7.3605e-06,7.9e-07,0.0,0 STARLINK-5527,1 56497U 23064BB  23320.40337378  .00000079  00000-0  73605-5 0  9993,2 56497  69.9986  74.5057 0003317 281.7719  78.3083 15.28607558 29734,6858.111,94.203,482.251,477.701,0.0
56497.0,STARLINK-5527,PAYLOAD,2023-11-17 10:48:33,15.28602461,0.0002629,69.9987,71.7389,250.4764,109.6127,5.6686e-06,3.2e-07,0.0,0 STARLINK-5527,1 56497U 23064BB  23321.45038847  .00000032  00000-0  56686-5 0  9997,2 56497  69.9987  71.7389 0002629 250.4764 109.6127 15.28602461 30254,6858.126,94.204,481.794,478.188,0.0
56497.0,STARLINK-5527,PAYLOAD,2023-11-17 13:57:01,15.28615517,0.0002828,69.9985,71.3934,266.0158,94.0694,-0.0001089,-3.164e-05,0.0,0 STARLINK-5527,1 56497U 23064BB  23321.58126410 -.00003164  00000-0 -10890-3 0  9991,2 56497  69.9985  71.3934 0002828 266.0158  94.0694 15.28615517 29918,6858.087,94.203,481.892,478.013,0.0
56497.0,STARLINK-5527,PAYLOAD,2023-11-17 18:39:43,15.28603039,0.0003459,69.9987,70.8752,276.8864,83.1917,-6.8258e-06,-3.17e-06,0.0,0 STARLINK-5527,1 56497U 23064BB  23321.77758208 -.00000317  00000-0 -68258-5 0  9998,2 56497  69.9987  70.8752 0003459 276.8864  83.1917 15.28603039 29942,6858.124,94.204,482.362,477.617,0.0
56497.0,STARLINK-5527,PAYLOAD,2023-11-18 10:22:01,15.28638591,0.000299,69.998,69.1461,279.0906,80.993,-0.000235,-6.684e-05,0.0,0 STARLINK-5527,1 56497U 23064BB  23322.43195909 -.00006684  00000-0 -23500-3 0  9997,2 56497  69.9980  69.1461 0002990 279.0906  80.9930 15.28638591 30408,6858.018,94.201,481.934,477.833,0.0
56497.0,STARLINK-5527,PAYLOAD,2023-11-18 13:30:29,15.28604135,0.0003491,69.9982,68.8005,273.1033,86.9742,6.4276e-06,5.3e-07,0.0,0 STARLINK-5527,1 56497U 23064BB  23322.56284177  .00000053  00000-0  64276-5 0  9996,2 56497  69.9982  68.8005 0003491 273.1033  86.9742 15.28604135 30069,6858.121,94.204,482.38,477.592,0.0
56497.0,STARLINK-5527,PAYLOAD,2023-11-19 13:03:57,15.28601814,0.0003392,69.9988,66.2078,272.6897,87.3889,3.8136e-05,9.38e-06,0.0,0 STARLINK-5527,1 56497U 23064BB  23323.54441820  .00000938  00000-0  38136-4 0  9992,2 56497  69.9988  66.2078 0003392 272.6897  87.3889 15.28601814 30214,6858.128,94.204,482.319,477.667,0.0
56497.0,STARLINK-5527,PAYLOAD,2023-11-19 16:12:25,15.28601714,0.0003395,69.9988,65.8621,272.7487,87.3299,3.6324e-05,8.87e-06,0.0,0 STARLINK-5527,1 56497U 23064BB  23323.67529529  .00000887  00000-0  36324-4 0  9999,2 56497  69.9988  65.8621 0003395 272.7487  87.3299 15.28601714 30597,6858.128,94.204,482.322,477.665,0.0
56497.0,STARLINK-5527,PAYLOAD,2023-11-20 14:11:45,15.28532849,0.0003295,69.9992,63.4427,274.4054,85.6744,-0.00030115,-8.501e-05,0.0,0 STARLINK-5527,1 56497U 23064BB  23324.59149586 -.00008501  00000-0 -30115-3 0  9996,2 56497  69.9992  63.4427 0003295 274.4054  85.6744 15.28532849 30372,6858.334,94.208,482.459,477.94,0.0
56497.0,STARLINK-5527,PAYLOAD,2023-11-20 18:54:43,15.28323698,0.0003719,69.9995,62.9248,267.5599,92.515,-0.0012783,-0.00035322,0.0,0 STARLINK-5527,1 56497U 23064BB  23324.78800454 -.00035322  00000-0 -12783-2 0  9996,2 56497  69.9995  62.9248 0003719 267.5599  92.5150 15.28323698 30769,6858.96,94.221,483.376,478.274,0.0
56497.0,STARLINK-5527,PAYLOAD,2023-11-20 23:37:41,15.28143338,0.0003134,69.9994,62.4068,263.7908,96.2909,-0.002078,-0.00056859,0.0,0 STARLINK-5527,1 56497U 23064BB  23324.98451267 -.00056859  00000-0 -20780-2 0  9996,2 56497  69.9994  62.4068 0003134 263.7908  96.2909 15.28143338 30793,6859.5,94.232,483.515,479.215,0.0
56497.0,STARLINK-5527,PAYLOAD,2023-11-21 10:38:14,15.27593799,0.0003765,70.0001,61.1999,288.2144,71.862,-0.0044341,-0.00118216,0.0,0 STARLINK-5527,1 56497U 23064BB  23325.44322102 -.00118216  00000-0 -44341-2 0  9998,2 56497  70.0001  61.1999 0003765 288.2144  71.8620 15.27593799 30864,6861.145,94.266,485.593,480.427,0.0
56497.0,STARLINK-5527,PAYLOAD,2023-11-22 00:00:00,15.25603319,0.0003146,70.0007,59.7293,273.8612,267.063,-0.039233,-0.00926668,0.0,0 STARLINK-5527,1 56497U 23064BB  23326.00001157 -.00926668  00000-0 -39233-1 0  9996,2 56497  70.0007  59.7293 0003146 273.8612 267.0630 15.25603319  6011,6867.111,94.389,491.137,486.816,0.0
56497.0,STARLINK-5527,PAYLOAD,2023-11-22 06:00:00,15.25116657,0.0003194,70.001,59.0723,272.792,200.5451,-0.038701,-0.00891721,0.0,0 STARLINK-5527,1 56497U 23064BB  23326.25001157 -.00891721  00000-0 -38701-1 0  9993,2 56497  70.0010  59.0723 0003194 272.7920 200.5451 15.25116657 30989,6868.572,94.419,492.631,488.243,0.0
56497.0,STARLINK-5527,PAYLOAD,2023-11-22 14:00:01,15.24452191,0.0003236,70.0009,58.197,278.3231,224.24,-0.039333,-0.00888643,0.0,0 STARLINK-5527,1 56497U 23064BB  23326.58334491 -.00888643  00000-0 -39333-1 0  9990,2 56497  70.0009  58.1970 0003236 278.3231 224.2400 15.24452191  5967,6870.568,94.46,494.656,490.21,0.0
56497.0,STARLINK-5527,PAYLOAD,2023-11-22 22:00:00,15.23833039,0.0003136,70.0008,57.3223,276.8342,254.1506,-0.043149,-0.00963478,0.0,0 STARLINK-5527,1 56497U 23064BB  23326.91667824 -.00963478  00000-0 -43149-1 0  9996,2 56497  70.0008  57.3223 0003136 276.8342 254.1506 15.23833039 31087,6872.429,94.499,496.449,492.139,0.0
56497.0,STARLINK-5527,PAYLOAD,2023-11-23 00:00:00,15.23640608,0.0003268,70.0011,57.1037,273.5427,354.4375,-0.041149,-0.00917104,0.0,0 STARLINK-5527,1 56497U 23064BB  23327.00001157 -.00917104  00000-0 -41149-1 0  9991,2 56497  70.0011  57.1037 0003268 273.5427 354.4375 15.23640608  6028,6873.007,94.51,497.119,492.626,0.0
56497.0,STARLINK-5527,PAYLOAD,2023-11-23 14:00:01,15.22491833,0.0003259,70.0012,55.5758,277.7954,307.7159,-0.041339,-0.00892248,0.0,0 STARLINK-5527,1 56497U 23064BB  23327.58334491 -.00892248  00000-0 -41339-1 0  9996,2 56497  70.0012  55.5758 0003259 277.7954 307.7159 15.22491833 31181,6876.464,94.582,500.57,496.088,0.0
56497.0,STARLINK-5527,PAYLOAD,2023-11-23 22:00:00,15.21874531,0.0003234,70.0012,54.7038,275.9568,335.6296,-0.045682,-0.00962508,0.0,0 STARLINK-5527,1 56497U 23064BB  23327.91667824 -.00962508  00000-0 -45682-1 0  9994,2 56497  70.0012  54.7038 0003234 275.9568 335.6296 15.21874531  5954,6878.324,94.62,502.413,497.964,0.0
56497.0,STARLINK-5527,PAYLOAD,2023-11-24 06:00:02,15.21212483,0.0003307,70.0017,53.8328,271.8403,5.1049,-0.044231,-0.00917389,0.0,0 STARLINK-5527,1 56497U 23064BB  23328.25002315 -.00917389  00000-0 -44231-1 0  9996,2 56497  70.0017  53.8328 0003307 271.8403   5.1049 15.21212483 31287,6880.319,94.661,504.46,499.909,0.0
56497.0,STARLINK-5527,PAYLOAD,2023-11-24 14:00:01,15.20536086,0.0003397,70.0017,52.9626,278.3029,23.1142,-0.043809,-0.00892635,0.0,0 STARLINK-5527,1 56497U 23064BB  23328.58334491 -.00892635  00000-0 -43809-1 0  9991,2 56497  70.0017  52.9626 0003397 278.3029  23.1142 15.20536086  5847,6882.359,94.703,506.562,501.887,0.0
56497.0,STARLINK-5527,PAYLOAD,2023-11-24 22:00:00,15.19914344,0.0003344,70.0016,52.0932,276.9988,48.1491,-0.048147,-0.00958092,0.0,0 STARLINK-5527,1 56497U 23064BB  23328.91667824 -.00958092  00000-0 -48147-1 0  9997,2 56497  70.0016  52.0932 0003344 276.9988  48.1491 15.19914344 31384,6884.236,94.742,508.403,503.799,0.0
56497.0,STARLINK-5527,PAYLOAD,2023-11-25 14:00:01,15.18580253,0.0003434,70.002,50.3573,280.6499,89.6333,-0.046482,-0.0089453,0.0,0 STARLINK-5527,1 56497U 23064BB  23329.58334491 -.00894530  00000-0 -46482-1 0  9998,2 56497  70.0020  50.3573 0003434 280.6499  89.6333 15.18580253  5990,6888.268,94.825,512.498,507.767,0.0
56497.0,STARLINK-5527,PAYLOAD,2023-11-26 00:00:00,15.17756018,0.0003292,70.002,49.274,278.1921,208.7106,-0.047319,-0.00889552,0.0,0 STARLINK-5527,1 56497U 23064BB  23330.00001157 -.00889552  00000-0 -47319-1 0  9995,2 56497  70.0020  49.2740 0003292 278.1921 208.7106 15.17756018  6061,6890.761,94.877,514.895,510.358,0.0
56497.0,STARLINK-5527,PAYLOAD,2023-11-26 06:00:00,15.17303798,0.0003366,70.0022,48.6249,276.3622,135.9034,-0.050145,-0.00927537,0.0,0 STARLINK-5527,1 56497U 23064BB  23330.25001157 -.00927537  00000-0 -50145-1 0  9999,2 56497  70.0022  48.6249 0003366 276.3622 135.9034 15.17303798 31590,6892.13,94.905,516.315,511.675,0.0
